start=new Date('2021-11-12T00:00:00.000Z').valueOf();
sats=[{"INCLINATION":"53.0566","TIME_SYSTEM":"UTC","EPOCH":"2021-11-11T13:37:07.759488","RCS_SIZE":"LARGE","REV_AT_EPOCH":"2884","APOAPSIS":"553.000","ELEMENT_SET_NO":"999","SEMIMAJOR_AXIS":"6930.326","PERIOD":"95.695","ECCENTRICITY":"0.00011680","DECAY_DATE":null,"OBJECT_NAME":"STARLINK-2633","SITE":"AFETR","RA_OF_ASC_NODE":"54.0405","REF_FRAME":"TEME","MEAN_MOTION":"15.04777581","ARG_OF_PERICENTER":"93.1588","MEAN_MOTION_DDOT":"0.0000000000000","CENTER_NAME":"EARTH","MEAN_MOTION_DOT":"0.00001721","LAUNCH_DATE":"2021-05-09","EPHEMERIS_TYPE":"0","OBJECT_ID":"2021-040H","CLASSIFICATION_TYPE":"U","FILE":"3212088","MEAN_ANOMALY":"266.9534","NORAD_CAT_ID":"48435","OBJECT_TYPE":"PAYLOAD","GP_ID":"189495877","TLE_LINE1":"1 48435U 21040H   21315.56745092  .00001721  00000-0  14009-3 0  9999","COUNTRY_CODE":"US","TLE_LINE2":"2 48435  53.0566  54.0405 0001168  93.1588 266.9534 15.04777581 28841","PERIAPSIS":"551.381","MEAN_ELEMENT_THEORY":"SGP4","BSTAR":"0.00014009000000"},{"GP_ID":"189528662","TLE_LINE1":"1 48436U 21040J   21315.63610806  .00000527  00000-0  54260-4 0  9999","OBJECT_TYPE":"PAYLOAD","TLE_LINE2":"2 48436  53.0553  70.2583 0001300  79.8971 280.2165 15.06407068 28627","PERIAPSIS":"546.292","BSTAR":"0.00005426000000","MEAN_ELEMENT_THEORY":"SGP4","COUNTRY_CODE":"US","LAUNCH_DATE":"2021-05-09","CLASSIFICATION_TYPE":"U","FILE":"3212485","MEAN_ANOMALY":"280.2165","NORAD_CAT_ID":"48436","EPHEMERIS_TYPE":"0","OBJECT_ID":"2021-040J","RA_OF_ASC_NODE":"70.2583","SITE":"AFETR","MEAN_MOTION":"15.06407068","REF_FRAME":"TEME","ARG_OF_PERICENTER":"79.8971","MEAN_MOTION_DDOT":"0.0000000000000","DECAY_DATE":null,"ECCENTRICITY":"0.00013000","OBJECT_NAME":"STARLINK-2639","CENTER_NAME":"EARTH","MEAN_MOTION_DOT":"0.00000527","EPOCH":"2021-11-11T15:15:59.736384","RCS_SIZE":"LARGE","TIME_SYSTEM":"UTC","INCLINATION":"53.0553","PERIOD":"95.592","REV_AT_EPOCH":"2862","APOAPSIS":"548.092","SEMIMAJOR_AXIS":"6925.327","ELEMENT_SET_NO":"999"},{"DECAY_DATE":null,"OBJECT_NAME":"STARLINK-2642","ECCENTRICITY":"0.00014940","MEAN_MOTION_DDOT":"0.0000000000000","ARG_OF_PERICENTER":"94.8253","MEAN_MOTION":"15.04766685","REF_FRAME":"TEME","SITE":"AFETR","RA_OF_ASC_NODE":"80.1686","MEAN_MOTION_DOT":"-0.00000440","CENTER_NAME":"EARTH","INCLINATION":"53.0138","TIME_SYSTEM":"UTC","RCS_SIZE":"MEDIUM","EPOCH":"2021-11-11T16:07:07.196448","SEMIMAJOR_AXIS":"6930.359","ELEMENT_SET_NO":"999","APOAPSIS":"553.259","REV_AT_EPOCH":"2849","PERIOD":"95.696","OBJECT_TYPE":"PAYLOAD","TLE_LINE1":"1 48437U 21040K   21315.67161107 -.00000440  00000-0 -11438-4 0  9995","GP_ID":"189528428","COUNTRY_CODE":"US","BSTAR":"-0.00001143800000","MEAN_ELEMENT_THEORY":"SGP4","PERIAPSIS":"551.189","TLE_LINE2":"2 48437  53.0138  80.1686 0001494  94.8253 265.2905 15.04766685 28496","LAUNCH_DATE":"2021-05-09","OBJECT_ID":"2021-040K","EPHEMERIS_TYPE":"0","NORAD_CAT_ID":"48437","MEAN_ANOMALY":"265.2905","FILE":"3212485","CLASSIFICATION_TYPE":"U"},{"EPOCH":"2021-11-11T19:57:20.817216","RCS_SIZE":"LARGE","INCLINATION":"53.0566","TIME_SYSTEM":"UTC","PERIOD":"95.594","REV_AT_EPOCH":"2865","APOAPSIS":"548.507","SEMIMAJOR_AXIS":"6925.426","ELEMENT_SET_NO":"999","REF_FRAME":"TEME","MEAN_MOTION":"15.06374893","MEAN_MOTION_DDOT":"0.0000000000000","ARG_OF_PERICENTER":"73.7905","SITE":"AFETR","RA_OF_ASC_NODE":"69.3905","DECAY_DATE":null,"ECCENTRICITY":"0.00017570","OBJECT_NAME":"STARLINK-2640","MEAN_MOTION_DOT":"-0.00002615","CENTER_NAME":"EARTH","LAUNCH_DATE":"2021-05-09","FILE":"3212485","NORAD_CAT_ID":"48438","MEAN_ANOMALY":"286.3277","CLASSIFICATION_TYPE":"U","OBJECT_ID":"2021-040L","EPHEMERIS_TYPE":"0","GP_ID":"189528545","TLE_LINE1":"1 48438U 21040L   21315.83149094 -.00002615  00000-0 -15683-3 0  9996","OBJECT_TYPE":"PAYLOAD","MEAN_ELEMENT_THEORY":"SGP4","BSTAR":"-0.00015683000000","TLE_LINE2":"2 48438  53.0566  69.3905 0001757  73.7905 286.3277 15.06374893 28659","PERIAPSIS":"546.074","COUNTRY_CODE":"US"},{"DECAY_DATE":null,"ECCENTRICITY":"0.00012360","OBJECT_NAME":"STARLINK-2583","REF_FRAME":"TEME","MEAN_MOTION":"15.06402495","ARG_OF_PERICENTER":"87.0036","MEAN_MOTION_DDOT":"0.0000000000000","RA_OF_ASC_NODE":"69.4123","SITE":"AFETR","MEAN_MOTION_DOT":"0.00000903","CENTER_NAME":"EARTH","INCLINATION":"53.0545","TIME_SYSTEM":"UTC","EPOCH":"2021-11-11T19:52:00.152256","RCS_SIZE":"LARGE","APOAPSIS":"548.062","REV_AT_EPOCH":"2865","ELEMENT_SET_NO":"999","SEMIMAJOR_AXIS":"6925.341","PERIOD":"95.592","OBJECT_TYPE":"PAYLOAD","GP_ID":"189527961","TLE_LINE1":"1 48439U 21040M   21315.82777954  .00000903  00000-0  79488-4 0  9998","COUNTRY_CODE":"US","MEAN_ELEMENT_THEORY":"SGP4","BSTAR":"0.00007948800000","TLE_LINE2":"2 48439  53.0545  69.4123 0001236  87.0036 273.1095 15.06402495 28657","PERIAPSIS":"546.350","LAUNCH_DATE":"2021-05-09","OBJECT_ID":"2021-040M","EPHEMERIS_TYPE":"0","FILE":"3212485","MEAN_ANOMALY":"273.1095","NORAD_CAT_ID":"48439","CLASSIFICATION_TYPE":"U"},{"GP_ID":"189528780","TLE_LINE1":"1 48440U 21040N   21315.82409450  .00001250  00000-0  10281-3 0  9994","OBJECT_TYPE":"PAYLOAD","BSTAR":"0.00010281000000","MEAN_ELEMENT_THEORY":"SGP4","TLE_LINE2":"2 48440  53.0566  69.4083 0001221  92.7854 267.3275 15.06405286 28658","PERIAPSIS":"546.352","COUNTRY_CODE":"US","LAUNCH_DATE":"2021-05-09","FILE":"3212485","NORAD_CAT_ID":"48440","MEAN_ANOMALY":"267.3275","CLASSIFICATION_TYPE":"U","OBJECT_ID":"2021-040N","EPHEMERIS_TYPE":"0","REF_FRAME":"TEME","MEAN_MOTION":"15.06405286","ARG_OF_PERICENTER":"92.7854","MEAN_MOTION_DDOT":"0.0000000000000","RA_OF_ASC_NODE":"69.4083","SITE":"AFETR","OBJECT_NAME":"STARLINK-2682","DECAY_DATE":null,"ECCENTRICITY":"0.00012210","MEAN_MOTION_DOT":"0.00001250","CENTER_NAME":"EARTH","EPOCH":"2021-11-11T19:46:41.764800","RCS_SIZE":"LARGE","TIME_SYSTEM":"UTC","INCLINATION":"53.0566","PERIOD":"95.592","REV_AT_EPOCH":"2865","APOAPSIS":"548.043","ELEMENT_SET_NO":"999","SEMIMAJOR_AXIS":"6925.332"},{"NORAD_CAT_ID":"48441","MEAN_ANOMALY":"261.8710","FILE":"3212088","CLASSIFICATION_TYPE":"U","OBJECT_ID":"2021-040P","EPHEMERIS_TYPE":"0","LAUNCH_DATE":"2021-05-09","BSTAR":"-0.00011128000000","MEAN_ELEMENT_THEORY":"SGP4","PERIAPSIS":"546.361","TLE_LINE2":"2 48441  53.0570  70.3188 0001253  98.2421 261.8710 15.06395147 28621","COUNTRY_CODE":"US","TLE_LINE1":"1 48441U 21040P   21315.62137252 -.00001938  00000-0 -11128-3 0  9997","GP_ID":"189495408","OBJECT_TYPE":"PAYLOAD","PERIOD":"95.592","ELEMENT_SET_NO":"999","SEMIMAJOR_AXIS":"6925.363","APOAPSIS":"548.096","REV_AT_EPOCH":"2862","RCS_SIZE":"LARGE","EPOCH":"2021-11-11T14:54:46.585728","TIME_SYSTEM":"UTC","INCLINATION":"53.0570","MEAN_MOTION_DOT":"-0.00001938","CENTER_NAME":"EARTH","MEAN_MOTION_DDOT":"0.0000000000000","ARG_OF_PERICENTER":"98.2421","MEAN_MOTION":"15.06395147","REF_FRAME":"TEME","SITE":"AFETR","RA_OF_ASC_NODE":"70.3188","DECAY_DATE":null,"OBJECT_NAME":"STARLINK-2702","ECCENTRICITY":"0.00012530"},{"LAUNCH_DATE":"2021-05-09","CLASSIFICATION_TYPE":"U","FILE":"3212088","NORAD_CAT_ID":"48442","MEAN_ANOMALY":"284.9166","EPHEMERIS_TYPE":"0","OBJECT_ID":"2021-040Q","GP_ID":"189495643","TLE_LINE1":"1 48442U 21040Q   21315.61768461  .00000044  00000-0  21854-4 0  9992","OBJECT_TYPE":"PAYLOAD","TLE_LINE2":"2 48442  53.0559  70.3334 0001458  75.1985 284.9166 15.06396222 28624","PERIAPSIS":"546.215","BSTAR":"0.00002185400000","MEAN_ELEMENT_THEORY":"SGP4","COUNTRY_CODE":"US","EPOCH":"2021-11-11T14:49:27.950304","RCS_SIZE":"LARGE","TIME_SYSTEM":"UTC","INCLINATION":"53.0559","PERIOD":"95.592","APOAPSIS":"548.235","REV_AT_EPOCH":"2862","SEMIMAJOR_AXIS":"6925.360","ELEMENT_SET_NO":"999","RA_OF_ASC_NODE":"70.3334","SITE":"AFETR","REF_FRAME":"TEME","MEAN_MOTION":"15.06396222","ARG_OF_PERICENTER":"75.1985","MEAN_MOTION_DDOT":"0.0000000000000","DECAY_DATE":null,"OBJECT_NAME":"STARLINK-2644","ECCENTRICITY":"0.00014580","CENTER_NAME":"EARTH","MEAN_MOTION_DOT":"0.00000044"},{"EPHEMERIS_TYPE":"0","OBJECT_ID":"2021-040R","CLASSIFICATION_TYPE":"U","NORAD_CAT_ID":"48443","MEAN_ANOMALY":"283.9551","FILE":"3212485","LAUNCH_DATE":"2021-05-09","COUNTRY_CODE":"US","PERIAPSIS":"546.268","TLE_LINE2":"2 48443  53.0563  69.4549 0001367  76.1590 283.9551 15.06399731 28657","MEAN_ELEMENT_THEORY":"SGP4","BSTAR":"0.00003869600000","OBJECT_TYPE":"PAYLOAD","TLE_LINE1":"1 48443U 21040R   21315.81304566  .00000295  00000-0  38696-4 0  9997","GP_ID":"189528311","ELEMENT_SET_NO":"999","SEMIMAJOR_AXIS":"6925.349","REV_AT_EPOCH":"2865","APOAPSIS":"548.161","PERIOD":"95.592","TIME_SYSTEM":"UTC","INCLINATION":"53.0563","RCS_SIZE":"LARGE","EPOCH":"2021-11-11T19:30:47.145024","CENTER_NAME":"EARTH","MEAN_MOTION_DOT":"0.00000295","OBJECT_NAME":"STARLINK-2663","DECAY_DATE":null,"ECCENTRICITY":"0.00013670","SITE":"AFETR","RA_OF_ASC_NODE":"69.4549","ARG_OF_PERICENTER":"76.1590","MEAN_MOTION_DDOT":"0.0000000000000","REF_FRAME":"TEME","MEAN_MOTION":"15.06399731"},{"CENTER_NAME":"EARTH","MEAN_MOTION_DOT":"-0.00000175","SITE":"AFETR","RA_OF_ASC_NODE":"69.4761","REF_FRAME":"TEME","MEAN_MOTION":"15.06404807","ARG_OF_PERICENTER":"75.3595","MEAN_MOTION_DDOT":"0.0000000000000","ECCENTRICITY":"0.00013480","DECAY_DATE":null,"OBJECT_NAME":"STARLINK-2645","PERIOD":"95.592","APOAPSIS":"548.132","REV_AT_EPOCH":"2865","ELEMENT_SET_NO":"999","SEMIMAJOR_AXIS":"6925.334","EPOCH":"2021-11-11T19:25:27.763104","RCS_SIZE":"LARGE","TIME_SYSTEM":"UTC","INCLINATION":"53.0563","TLE_LINE2":"2 48444  53.0563  69.4761 0001348  75.3595 284.7544 15.06404807 28651","PERIAPSIS":"546.265","BSTAR":"0.00000711250000","MEAN_ELEMENT_THEORY":"SGP4","COUNTRY_CODE":"US","GP_ID":"189528663","TLE_LINE1":"1 48444U 21040S   21315.80934911 -.00000175  00000-0  71125-5 0  9993","OBJECT_TYPE":"PAYLOAD","CLASSIFICATION_TYPE":"U","FILE":"3212485","MEAN_ANOMALY":"284.7544","NORAD_CAT_ID":"48444","EPHEMERIS_TYPE":"0","OBJECT_ID":"2021-040S","LAUNCH_DATE":"2021-05-09"}];
